{
  "type": "FeatureCollection",
  "features": [
    {
      "type": "Feature",
      "properties": {
        "norad_id": 66975,
        "name": "STARLINK-35777",
        "group": "last-30-days",
        "lat": -39.156008855912134,
        "lon": 32.22469939709562,
        "alt_km": 368.70880038285213,
        "timestamp": "2025-12-24T20:42:19.747916+00:00",
        "meta_object_name": "STARLINK-35777",
        "meta_object_id": "2025-288S",
        "meta_epoch": "2025-12-24T06:00:02.000160",
        "meta_mean_motion": 15.69816575,
        "meta_eccentricity": 0.0001342,
        "meta_inclination": 43.0003,
        "meta_ra_of_asc_node": 96.8168,
        "meta_arg_of_pericenter": 277.9604,
        "meta_mean_anomaly": 150.228,
        "meta_ephemeris_type": 0,
        "meta_classification_type": "U",
        "meta_norad_cat_id": 66975,
        "meta_element_set_no": 999,
        "meta_rev_at_epoch": 368,
        "meta_bstar": -0.017652525,
        "meta_mean_motion_dot": -0.01923001,
        "meta_mean_motion_ddot": 0,
        "tle_line1": "1 66975U 25288S   25358.25002315 -.01923001  00000+0 -17653-1 0  9999",
        "tle_line2": "2 66975  43.0003  96.8168 0001342 277.9604 150.2280 15.69816575  3686"
      },
      "geometry": {
        "type": "Point",
        "coordinates": [
          32.22469939709562,
          -39.156008855912134
        ]
      }
    },
    {
      "type": "Feature",
      "properties": {
        "norad_id": 66976,
        "name": "STARLINK-35772",
        "group": "last-30-days",
        "lat": -28.003270017510356,
        "lon": -51.00587342423835,
        "alt_km": 430.0940183185303,
        "timestamp": "2025-12-24T20:42:19.747928+00:00",
        "meta_object_name": "STARLINK-35772",
        "meta_object_id": "2025-288T",
        "meta_epoch": "2025-12-24T06:00:02.000160",
        "meta_mean_motion": 15.48882631,
        "meta_eccentricity": 0.00014775,
        "meta_inclination": 43.0004,
        "meta_ra_of_asc_node": 97.7649,
        "meta_arg_of_pericenter": 270.1854,
        "meta_mean_anomaly": 135.9856,
        "meta_ephemeris_type": 0,
        "meta_classification_type": "U",
        "meta_norad_cat_id": 66976,
        "meta_element_set_no": 999,
        "meta_rev_at_epoch": 368,
        "meta_bstar": -0.044447723,
        "meta_mean_motion_dot": -0.02170101,
        "meta_mean_motion_ddot": 0,
        "tle_line1": "1 66976U 25288T   25358.25002315 -.02170101  00000+0 -44448-1 0  9998",
        "tle_line2": "2 66976  43.0004  97.7649 0001477 270.1854 135.9856 15.48882631  3685"
      },
      "geometry": {
        "type": "Point",
        "coordinates": [
          -51.00587342423835,
          -28.003270017510356
        ]
      }
    },
    {
      "type": "Feature",
      "properties": {
        "norad_id": 66977,
        "name": "STARLINK-35770",
        "group": "last-30-days",
        "lat": -38.49989636309009,
        "lon": 34.523844585087666,
        "alt_km": 368.7609132964035,
        "timestamp": "2025-12-24T20:42:19.747938+00:00",
        "meta_object_name": "STARLINK-35770",
        "meta_object_id": "2025-288U",
        "meta_epoch": "2025-12-24T06:00:02.000160",
        "meta_mean_motion": 15.69812723,
        "meta_eccentricity": 0.00012485,
        "meta_inclination": 43.0002,
        "meta_ra_of_asc_node": 96.8125,
        "meta_arg_of_pericenter": 279.8131,
        "meta_mean_anomaly": 150.3004,
        "meta_ephemeris_type": 0,
        "meta_classification_type": "U",
        "meta_norad_cat_id": 66977,
        "meta_element_set_no": 999,
        "meta_rev_at_epoch": 368,
        "meta_bstar": -0.017675242,
        "meta_mean_motion_dot": -0.01924847,
        "meta_mean_motion_ddot": 0,
        "tle_line1": "1 66977U 25288U   25358.25002315 -.01924847  00000+0 -17675-1 0  9994",
        "tle_line2": "2 66977  43.0002  96.8125 0001248 279.8131 150.3004 15.69812723  3687"
      },
      "geometry": {
        "type": "Point",
        "coordinates": [
          34.523844585087666,
          -38.49989636309009
        ]
      }
    },
    {
      "type": "Feature",
      "properties": {
        "norad_id": 66978,
        "name": "STARLINK-35787",
        "group": "last-30-days",
        "lat": -36.26775681066677,
        "lon": 41.17491086266436,
        "alt_km": 368.57099438361274,
        "timestamp": "2025-12-24T20:42:19.747947+00:00",
        "meta_object_name": "STARLINK-35787",
        "meta_object_id": "2025-288V",
        "meta_epoch": "2025-12-24T06:00:02.000160",
        "meta_mean_motion": 15.69809276,
        "meta_eccentricity": 0.00013703,
        "meta_inclination": 43.0002,
        "meta_ra_of_asc_node": 96.7974,
        "meta_arg_of_pericenter": 281.7799,
        "meta_mean_anomaly": 154.0859,
        "meta_ephemeris_type": 0,
        "meta_classification_type": "U",
        "meta_norad_cat_id": 66978,
        "meta_element_set_no": 999,
        "meta_rev_at_epoch": 368,
        "meta_bstar": -0.017625203,
        "meta_mean_motion_dot": -0.01919863,
        "meta_mean_motion_ddot": 0,
        "tle_line1": "1 66978U 25288V   25358.25002315 -.01919863  00000+0 -17625-1 0  9992",
        "tle_line2": "2 66978  43.0002  96.7974 0001370 281.7799 154.0859 15.69809276  3685"
      },
      "geometry": {
        "type": "Point",
        "coordinates": [
          41.17491086266436,
          -36.26775681066677
        ]
      }
    },
    {
      "type": "Feature",
      "properties": {
        "norad_id": 66979,
        "name": "STARLINK-36107",
        "group": "last-30-days",
        "lat": -35.44401822853886,
        "lon": 43.303665275869925,
        "alt_km": 368.6271228905807,
        "timestamp": "2025-12-24T20:42:19.747961+00:00",
        "meta_object_name": "STARLINK-36107",
        "meta_object_id": "2025-288W",
        "meta_epoch": "2025-12-24T06:00:02.000160",
        "meta_mean_motion": 15.69812323,
        "meta_eccentricity": 0.0001287,
        "meta_inclination": 43.0004,
        "meta_ra_of_asc_node": 96.7929,
        "meta_arg_of_pericenter": 279.4938,
        "meta_mean_anomaly": 158.2883,
        "meta_ephemeris_type": 0,
        "meta_classification_type": "U",
        "meta_norad_cat_id": 66979,
        "meta_element_set_no": 999,
        "meta_rev_at_epoch": 368,
        "meta_bstar": -0.017667103,
        "meta_mean_motion_dot": -0.01924062,
        "meta_mean_motion_ddot": 0,
        "tle_line1": "1 66979U 25288W   25358.25002315 -.01924062  00000+0 -17667-1 0  9996",
        "tle_line2": "2 66979  43.0004  96.7929 0001287 279.4938 158.2883 15.69812323  3684"
      },
      "geometry": {
        "type": "Point",
        "coordinates": [
          43.303665275869925,
          -35.44401822853886
        ]
      }
    },
    {
      "type": "Feature",
      "properties": {
        "norad_id": 66980,
        "name": "STARLINK-36086",
        "group": "last-30-days",
        "lat": -34.58117668716676,
        "lon": 45.39216015155853,
        "alt_km": 368.5898180668237,
        "timestamp": "2025-12-24T20:42:19.747971+00:00",
        "meta_object_name": "STARLINK-36086",
        "meta_object_id": "2025-288X",
        "meta_epoch": "2025-12-24T06:00:02.000160",
        "meta_mean_motion": 15.69818448,
        "meta_eccentricity": 0.0001339,
        "meta_inclination": 43.0003,
        "meta_ra_of_asc_node": 96.7875,
        "meta_arg_of_pericenter": 276.0568,
        "meta_mean_anomaly": 163.6342,
        "meta_ephemeris_type": 0,
        "meta_classification_type": "U",
        "meta_norad_cat_id": 66980,
        "meta_element_set_no": 999,
        "meta_rev_at_epoch": 368,
        "meta_bstar": -0.017678522,
        "meta_mean_motion_dot": -0.01925641,
        "meta_mean_motion_ddot": 0,
        "tle_line1": "1 66980U 25288X   25358.25002315 -.01925641  00000+0 -17679-1 0  9995",
        "tle_line2": "2 66980  43.0003  96.7875 0001339 276.0568 163.6342 15.69818448  3689"
      },
      "geometry": {
        "type": "Point",
        "coordinates": [
          45.39216015155853,
          -34.58117668716676
        ]
      }
    },
    {
      "type": "Feature",
      "properties": {
        "norad_id": 66981,
        "name": "STARLINK-36142",
        "group": "last-30-days",
        "lat": -33.685593885228506,
        "lon": 47.43286553584673,
        "alt_km": 368.52717239101,
        "timestamp": "2025-12-24T20:42:19.747982+00:00",
        "meta_object_name": "STARLINK-36142",
        "meta_object_id": "2025-288Y",
        "meta_epoch": "2025-12-24T06:00:02.000160",
        "meta_mean_motion": 15.69815923,
        "meta_eccentricity": 0.00013564,
        "meta_inclination": 43.0002,
        "meta_ra_of_asc_node": 96.7832,
        "meta_arg_of_pericenter": 277.3136,
        "meta_mean_anomaly": 164.2956,
        "meta_ephemeris_type": 0,
        "meta_classification_type": "U",
        "meta_norad_cat_id": 66981,
        "meta_element_set_no": 999,
        "meta_rev_at_epoch": 368,
        "meta_bstar": -0.017651274,
        "meta_mean_motion_dot": -0.01922845,
        "meta_mean_motion_ddot": 0,
        "tle_line1": "1 66981U 25288Y   25358.25002315 -.01922845  00000+0 -17651-1 0  9999",
        "tle_line2": "2 66981  43.0002  96.7832 0001356 277.3136 164.2956 15.69815923  3689"
      },
      "geometry": {
        "type": "Point",
        "coordinates": [
          47.43286553584673,
          -33.685593885228506
        ]
      }
    }
  ]
}